[{"OBJECT_NAME":"BEIDOU-3 G1 (C59)","OBJECT_ID":"2018-085A","EPOCH":"2026-03-28T22:17:42.764352","MEAN_MOTION":1.00269317,"ECCENTRICITY":0.00015654,"INCLINATION":2.8717,"RA_OF_ASC_NODE":99.6104,"ARG_OF_PERICENTER":22.6654,"MEAN_ANOMALY":178.4615,"EPHEMERIS_TYPE":0,"CLASSIFICATION_TYPE":"U","NORAD_CAT_ID":43683,"ELEMENT_SET_NO":999,"REV_AT_EPOCH":2725,"BSTAR":0,"MEAN_MOTION_DOT":-2.96e-6,"MEAN_MOTION_DDOT":0},{"OBJECT_NAME":"COSMOS 2529 (757)","OBJECT_ID":"2018-086A","EPOCH":"2026-03-25T04:24:38.012256","MEAN_MOTION":2.13101936,"ECCENTRICITY":0.00087146,"INCLINATION":64.2947,"RA_OF_ASC_NODE":195.4281,"ARG_OF_PERICENTER":253.5032,"MEAN_ANOMALY":106.4055,"EPHEMERIS_TYPE":0,"CLASSIFICATION_TYPE":"U","NORAD_CAT_ID":43687,"ELEMENT_SET_NO":999,"REV_AT_EPOCH":5749,"BSTAR":0,"MEAN_MOTION_DOT":5.0e-8,"MEAN_MOTION_DDOT":0},{"OBJECT_NAME":"BEIDOU-3 M17 (C36)","OBJECT_ID":"2018-093A","EPOCH":"2026-03-27T04:51:37.860192","MEAN_MOTION":1.8622828,"ECCENTRICITY":0.0007874,"INCLINATION":54.1688,"RA_OF_ASC_NODE":185.0778,"ARG_OF_PERICENTER":293.7414,"MEAN_ANOMALY":97.3651,"EPHEMERIS_TYPE":0,"CLASSIFICATION_TYPE":"U","NORAD_CAT_ID":43706,"ELEMENT_SET_NO":999,"REV_AT_EPOCH":5001,"BSTAR":0,"MEAN_MOTION_DOT":-3.7e-7,"MEAN_MOTION_DDOT":0},{"OBJECT_NAME":"BEIDOU-3 M18 (C37)","OBJECT_ID":"2018-093B","EPOCH":"2026-03-26T11:33:32.951232","MEAN_MOTION":1.86226396,"ECCENTRICITY":0.0006336,"INCLINATION":54.17,"RA_OF_ASC_NODE":185.0943,"ARG_OF_PERICENTER":332.676,"MEAN_ANOMALY":27.2992,"EPHEMERIS_TYPE":0,"CLASSIFICATION_TYPE":"U","NORAD_CAT_ID":43707,"ELEMENT_SET_NO":999,"REV_AT_EPOCH":4999,"BSTAR":0,"MEAN_MOTION_DOT":-3.0e-7,"MEAN_MOTION_DDOT":0},{"OBJECT_NAME":"GPS BIII-1  (PRN 04)","OBJECT_ID":"2018-109A","EPOCH":"2026-03-28T06:20:56.016672","MEAN_MOTION":2.00557717,"ECCENTRICITY":0.0037867,"INCLINATION":55.6315,"RA_OF_ASC_NODE":95.3771,"ARG_OF_PERICENTER":198.7638,"MEAN_ANOMALY":175.851,"EPHEMERIS_TYPE":0,"CLASSIFICATION_TYPE":"U","NORAD_CAT_ID":43873,"ELEMENT_SET_NO":999,"REV_AT_EPOCH":5345,"BSTAR":0,"MEAN_MOTION_DOT":4.5e-7,"MEAN_MOTION_DDOT":0},{"OBJECT_NAME":"BEIDOU-3 IGSO-1 (C38)","OBJECT_ID":"2019-023A","EPOCH":"2026-03-26T15:46:11.305056","MEAN_MOTION":1.00263805,"ECCENTRICITY":0.00251832,"INCLINATION":58.586,"RA_OF_ASC_NODE":38.4984,"ARG_OF_PERICENTER":236.7446,"MEAN_ANOMALY":263.8673,"EPHEMERIS_TYPE":0,"CLASSIFICATION_TYPE":"U","NORAD_CAT_ID":44204,"ELEMENT_SET_NO":999,"REV_AT_EPOCH":638,"BSTAR":0,"MEAN_MOTION_DOT":-2.12e-6,"MEAN_MOTION_DDOT":0},{"OBJECT_NAME":"BEIDOU-2 G8 (C01)","OBJECT_ID":"2019-027A","EPOCH":"2026-03-28T22:19:05.132064","MEAN_MOTION":1.00268267,"ECCENTRICITY":0.00114155,"INCLINATION":1.455,"RA_OF_ASC_NODE":74.2784,"ARG_OF_PERICENTER":275.501,"MEAN_ANOMALY":315.7753,"EPHEMERIS_TYPE":0,"CLASSIFICATION_TYPE":"U","NORAD_CAT_ID":44231,"ELEMENT_SET_NO":999,"REV_AT_EPOCH":2527,"BSTAR":0,"MEAN_MOTION_DOT":-2.67e-6,"MEAN_MOTION_DDOT":0},{"OBJECT_NAME":"COSMOS 2534 (758)","OBJECT_ID":"2019-030A","EPOCH":"2026-03-26T22:51:06.084864","MEAN_MOTION":2.13102185,"ECCENTRICITY":0.0010587,"INCLINATION":64.3675,"RA_OF_ASC_NODE":195.3834,"ARG_OF_PERICENTER":278.5139,"MEAN_ANOMALY":132.529,"EPHEMERIS_TYPE":0,"CLASSIFICATION_TYPE":"U","NORAD_CAT_ID":44299,"ELEMENT_SET_NO":999,"REV_AT_EPOCH":5317,"BSTAR":0,"MEAN_MOTION_DOT":-2.2e-7,"MEAN_MOTION_DDOT":0},{"OBJECT_NAME":"GPS BIII-2  (PRN 18)","OBJECT_ID":"2019-056A","EPOCH":"2026-03-27T15:53:36.359232","MEAN_MOTION":2.00568459,"ECCENTRICITY":0.0058566,"INCLINATION":55.6735,"RA_OF_ASC_NODE":334.3842,"ARG_OF_PERICENTER":197.7684,"MEAN_ANOMALY":3.1076,"EPHEMERIS_TYPE":0,"CLASSIFICATION_TYPE":"U","NORAD_CAT_ID":44506,"ELEMENT_SET_NO":999,"REV_AT_EPOCH":4843,"BSTAR":0,"MEAN_MOTION_DOT":-8.4e-7,"MEAN_MOTION_DDOT":0},{"OBJECT_NAME":"BEIDOU-3 M24 (C46)","OBJECT_ID":"2019-061A","EPOCH":"2026-03-26T13:13:55.330176","MEAN_MOTION":1.86228792,"ECCENTRICITY":0.0008194,"INCLINATION":54.397,"RA_OF_ASC_NODE":185.5149,"ARG_OF_PERICENTER":15.0686,"MEAN_ANOMALY":344.9633,"EPHEMERIS_TYPE":0,"CLASSIFICATION_TYPE":"U","NORAD_CAT_ID":44542,"ELEMENT_SET_NO":999,"REV_AT_EPOCH":4425,"BSTAR":0,"MEAN_MOTION_DOT":-3.0e-7,"MEAN_MOTION_DDOT":0},{"OBJECT_NAME":"BEIDOU-3 M23 (C45)","OBJECT_ID":"2019-061B","EPOCH":"2026-03-27T04:42:14.012928","MEAN_MOTION":1.86227116,"ECCENTRICITY":0.0004848,"INCLINATION":54.395,"RA_OF_ASC_NODE":185.4615,"ARG_OF_PERICENTER":1.0858,"MEAN_ANOMALY":343.2659,"EPHEMERIS_TYPE":0,"CLASSIFICATION_TYPE":"U","NORAD_CAT_ID":44543,"ELEMENT_SET_NO":999,"REV_AT_EPOCH":4426,"BSTAR":0,"MEAN_MOTION_DOT":-3.7e-7,"MEAN_MOTION_DDOT":0},{"OBJECT_NAME":"EUTELSAT 5 WEST B (EGNOS/PRN 121)","OBJECT_ID":"2019-067A","EPOCH":"2026-03-28T21:36:26.345088","MEAN_MOTION":1.00271376,"ECCENTRICITY":0.00032762,"INCLINATION":0.0663,"RA_OF_ASC_NODE":355.5502,"ARG_OF_PERICENTER":15.7102,"MEAN_ANOMALY":134.1387,"EPHEMERIS_TYPE":0,"CLASSIFICATION_TYPE":"U","NORAD_CAT_ID":44624,"ELEMENT_SET_NO":999,"REV_AT_EPOCH":2363,"BSTAR":0,"MEAN_MOTION_DOT":-6.2e-7,"MEAN_MOTION_DDOT":0},{"OBJECT_NAME":"BEIDOU-3 IGSO-3 (C40)","OBJECT_ID":"2019-073A","EPOCH":"2026-03-27T22:31:01.388928","MEAN_MOTION":1.00261892,"ECCENTRICITY":0.00410078,"INCLINATION":54.9409,"RA_OF_ASC_NODE":281.7733,"ARG_OF_PERICENTER":188.7198,"MEAN_ANOMALY":171.1984,"EPHEMERIS_TYPE":0,"CLASSIFICATION_TYPE":"U","NORAD_CAT_ID":44709,"ELEMENT_SET_NO":999,"REV_AT_EPOCH":2364,"BSTAR":0,"MEAN_MOTION_DOT":-1.59e-6,"MEAN_MOTION_DDOT":0},{"OBJECT_NAME":"BEIDOU-3 M22 (C44)","OBJECT_ID":"2019-078A","EPOCH":"2026-03-27T11:08:27.250656","MEAN_MOTION":1.86231892,"ECCENTRICITY":0.00074546,"INCLINATION":54.0095,"RA_OF_ASC_NODE":302.7034,"ARG_OF_PERICENTER":41.3303,"MEAN_ANOMALY":318.7622,"EPHEMERIS_TYPE":0,"CLASSIFICATION_TYPE":"U","NORAD_CAT_ID":44793,"ELEMENT_SET_NO":999,"REV_AT_EPOCH":4312,"BSTAR":0,"MEAN_MOTION_DOT":-3.1e-7,"MEAN_MOTION_DDOT":0},{"OBJECT_NAME":"BEIDOU-3 M21 (C43)","OBJECT_ID":"2019-078B","EPOCH":"2026-03-26T12:43:42.292704","MEAN_MOTION":1.86227568,"ECCENTRICITY":0.00053802,"INCLINATION":53.9841,"RA_OF_ASC_NODE":302.6991,"ARG_OF_PERICENTER":37.5776,"MEAN_ANOMALY":322.4952,"EPHEMERIS_TYPE":0,"CLASSIFICATION_TYPE":"U","NORAD_CAT_ID":44794,"ELEMENT_SET_NO":999,"REV_AT_EPOCH":4311,"BSTAR":0,"MEAN_MOTION_DOT":-2.9e-7,"MEAN_MOTION_DDOT":0},{"OBJECT_NAME":"COSMOS 2544 (759)","OBJECT_ID":"2019-088A","EPOCH":"2026-03-23T14:58:07.497696","MEAN_MOTION":2.1310202,"ECCENTRICITY":0.00157911,"INCLINATION":65.5174,"RA_OF_ASC_NODE":76.5851,"ARG_OF_PERICENTER":260.6166,"MEAN_ANOMALY":99.2133,"EPHEMERIS_TYPE":0,"CLASSIFICATION_TYPE":"U","NORAD_CAT_ID":44850,"ELEMENT_SET_NO":999,"REV_AT_EPOCH":4889,"BSTAR":0,"MEAN_MOTION_DOT":3.6e-7,"MEAN_MOTION_DDOT":0},{"OBJECT_NAME":"BEIDOU-3 M19 (C41)","OBJECT_ID":"2019-090A","EPOCH":"2026-03-28T15:41:00.138912","MEAN_MOTION":1.86231189,"ECCENTRICITY":0.00203632,"INCLINATION":56.4908,"RA_OF_ASC_NODE":65.4505,"ARG_OF_PERICENTER":293.6581,"MEAN_ANOMALY":246.5173,"EPHEMERIS_TYPE":0,"CLASSIFICATION_TYPE":"U","NORAD_CAT_ID":44864,"ELEMENT_SET_NO":999,"REV_AT_EPOCH":4273,"BSTAR":0,"MEAN_MOTION_DOT":-4.0e-8,"MEAN_MOTION_DDOT":0}]
